[{"OBJECT_NAME":"NIGERIASAT-2","OBJECT_ID":"2011-044B","EPOCH":"2026-03-09T22:16:13.230624","MEAN_MOTION":14.70414983,"ECCENTRICITY":0.00315152,"INCLINATION":97.8701,"RA_OF_ASC_NODE":49.4656,"ARG_OF_PERICENTER":79.9218,"MEAN_ANOMALY":4.7488,"EPHEMERIS_TYPE":0,"CLASSIFICATION_TYPE":"U","NORAD_CAT_ID":37789,"ELEMENT_SET_NO":999,"REV_AT_EPOCH":77598,"BSTAR":0.00015542996,"MEAN_MOTION_DOT":9.0e-6,"MEAN_MOTION_DDOT":0},{"OBJECT_NAME":"CZ-4B DEB","OBJECT_ID":"1999-057JG","EPOCH":"2026-03-08T15:04:41.225088","MEAN_MOTION":14.57179651,"ECCENTRICITY":0.0053146,"INCLINATION":98.4518,"RA_OF_ASC_NODE":132.1097,"ARG_OF_PERICENTER":352.0415,"MEAN_ANOMALY":7.9934,"EPHEMERIS_TYPE":0,"CLASSIFICATION_TYPE":"U","NORAD_CAT_ID":26347,"ELEMENT_SET_NO":999,"REV_AT_EPOCH":36676,"BSTAR":0.00060571588,"MEAN_MOTION_DOT":2.737e-5,"MEAN_MOTION_DDOT":0}]
